{"fetched_at":"2026-03-30T09:12:31Z","count":15922,"tles":[{"name":"STARLINK-31495","line1":"1 59313U 24056T   26087.55404496 -.00001157  00000+0 -32474-4 0  9997","line2":"2 59313  43.0084 116.8731 0003075 281.3265  78.7241 15.27589527114120","category":"Starlink"}]}